[{"OBJECT_NAME":"HAIYANG-3A","OBJECT_ID":"2023-176A","EPOCH":"2026-03-09T22:59:35.740320","MEAN_MOTION":14.34139944,"ECCENTRICITY":0.00087972,"INCLINATION":98.552,"RA_OF_ASC_NODE":148.0351,"ARG_OF_PERICENTER":324.745,"MEAN_ANOMALY":35.3152,"EPHEMERIS_TYPE":0,"CLASSIFICATION_TYPE":"U","NORAD_CAT_ID":58349,"ELEMENT_SET_NO":999,"REV_AT_EPOCH":12109,"BSTAR":7.6477628e-5,"MEAN_MOTION_DOT":1.7e-6,"MEAN_MOTION_DDOT":0},{"OBJECT_NAME":"NOAA 16 DEB","OBJECT_ID":"2000-055MG","EPOCH":"2026-03-08T06:44:56.423904","MEAN_MOTION":14.33750039,"ECCENTRICITY":0.00256971,"INCLINATION":98.8533,"RA_OF_ASC_NODE":190.8698,"ARG_OF_PERICENTER":213.2778,"MEAN_ANOMALY":146.6791,"EPHEMERIS_TYPE":0,"CLASSIFICATION_TYPE":"U","NORAD_CAT_ID":41508,"ELEMENT_SET_NO":999,"REV_AT_EPOCH":51218,"BSTAR":0.0026780158,"MEAN_MOTION_DOT":7.428e-5,"MEAN_MOTION_DDOT":0}]
